NORAD_CAT_ID,OBJECT_NAME,OBJECT_TYPE,EPOCH,MEAN_MOTION,ECCENTRICITY,INCLINATION,RA_OF_ASC_NODE,ARG_OF_PERICENTER,MEAN_ANOMALY,BSTAR,MEAN_MOTION_DOT,MEAN_MOTION_DDOT,TLE_LINE0,TLE_LINE1,TLE_LINE2,SEMIMAJOR_AXIS,PERIOD,APOGEE,PERIGEE,DECAYED
51804.0,STARLINK-3601,PAYLOAD,2023-11-04 11:15:08,15.08837044,0.0001979,53.2174,212.8464,81.6275,278.4941,-4.4445e-06,-3.59e-06,0.0,0 STARLINK-3601,1 51804U 22017AN  23308.46884483 -.00000359  00000-0 -44445-5 0  9996,2 51804  53.2174 212.8464 0001979  81.6275 278.4941 15.08837044 94899,6917.889,95.438,541.123,538.385,0.0
51804.0,STARLINK-3601,PAYLOAD,2023-11-04 22:22:50,15.0884052,0.0001469,53.2167,210.7627,91.2164,268.8996,0.00012398,1.686e-05,0.0,0 STARLINK-3601,1 51804U 22017AN  23308.93252361  .00001686  00000-0  12398-3 0  9994,2 51804  53.2167 210.7627 0001469  91.2164 268.8996 15.08840520 94961,6917.879,95.438,540.76,538.728,0.0
51804.0,STARLINK-3601,PAYLOAD,2023-11-05 03:08:58,15.08859007,0.0001462,53.2166,209.8725,82.9111,277.2048,0.0004555,6.972e-05,0.0,0 STARLINK-3601,1 51804U 22017AN  23309.13123485  .00006972  00000-0  45550-3 0  9990,2 51804  53.2166 209.8725 0001462  82.9111 277.2048 15.08859007 95097,6917.822,95.436,540.699,538.676,0.0
51804.0,STARLINK-3601,PAYLOAD,2023-11-05 11:05:54,15.08853478,0.000158,53.2166,208.3827,99.3013,260.8158,0.00032573,4.902e-05,0.0,0 STARLINK-3601,1 51804U 22017AN  23309.46243602  .00004902  00000-0  32573-3 0  9992,2 51804  53.2166 208.3827 0001580  99.3013 260.8158 15.08853478 95140,6917.839,95.437,540.797,538.611,0.0
51804.0,STARLINK-3601,PAYLOAD,2023-11-05 22:13:35,15.08874767,0.0001863,53.2174,206.3029,96.9962,263.1242,0.00067157,0.00010426,0.0,0 STARLINK-3601,1 51804U 22017AN  23309.92610524  .00010426  00000-0  67157-3 0  9998,2 51804  53.2174 206.3029 0001863  96.9962 263.1242 15.08874767 95112,6917.774,95.435,540.928,538.35,0.0
51804.0,STARLINK-3601,PAYLOAD,2023-11-06 02:59:43,15.08902812,0.0001646,53.2157,205.4088,122.8717,237.2433,0.0010666,0.00016757,0.0,0 STARLINK-3601,1 51804U 22017AN  23310.12480726  .00016757  00000-0  10666-2 0  9996,2 51804  53.2157 205.4088 0001646 122.8717 237.2433 15.08902812 95245,6917.688,95.434,540.692,538.415,0.0
51804.0,STARLINK-3601,PAYLOAD,2023-11-06 22:04:23,15.08801303,0.0001525,53.2157,201.8408,109.7271,250.3885,-0.0012991,-0.00020882,0.0,0 STARLINK-3601,1 51804U 22017AN  23310.91971227 -.00020882  00000-0 -12991-2 0  9993,2 51804  53.2157 201.8408 0001525 109.7271 250.3885 15.08801303 95268,6917.999,95.44,540.919,538.809,0.0
51804.0,STARLINK-3601,PAYLOAD,2023-11-07 01:15:09,15.08791952,0.0001288,53.2157,201.247,88.4895,271.6245,-0.0016611,-0.00026592,0.0,0 STARLINK-3601,1 51804U 22017AN  23311.05219269 -.00026592  00000-0 -16611-2 0  9997,2 51804  53.2157 201.2470 0001288  88.4895 271.6245 15.08791952 95389,6918.027,95.441,540.783,539.001,0.0
51804.0,STARLINK-3601,PAYLOAD,2023-11-07 04:25:56,15.08800194,0.0001219,53.2151,200.6536,95.356,264.7571,-0.0010207,-0.00016478,0.0,0 STARLINK-3601,1 51804U 22017AN  23311.18468062 -.00016478  00000-0 -10207-2 0  9995,2 51804  53.2151 200.6536 0001219  95.3560 264.7571 15.08800194 95305,6918.002,95.44,540.71,539.024,0.0
51804.0,STARLINK-3601,PAYLOAD,2023-11-08 02:41:22,15.08814115,0.0001301,53.2155,196.4903,94.6011,265.513,0.0013924,0.00021926,0.0,0 STARLINK-3601,1 51804U 22017AN  23312.11206738  .00021926  00000-0  13924-2 0  9990,2 51804  53.2155 196.4903 0001301  94.6011 265.5130 15.08814115 95548,6917.96,95.439,540.725,538.924,0.0
51804.0,STARLINK-3601,PAYLOAD,2023-11-08 20:10:36,15.08867609,0.0001254,53.2157,193.2202,98.6512,261.4623,0.0016426,0.0002597,0.0,0 STARLINK-3601,1 51804U 22017AN  23312.84070141  .00025970  00000-0  16426-2 0  9990,2 51804  53.2157 193.2202 0001254  98.6512 261.4623 15.08867609 95654,6917.796,95.436,540.528,538.794,0.0
51804.0,STARLINK-3601,PAYLOAD,2023-11-08 23:21:22,15.0887492,0.0001277,53.2157,192.6251,100.3355,259.7782,0.0016887,0.00026716,0.0,0 STARLINK-3601,1 51804U 22017AN  23312.97317855  .00026716  00000-0  16887-2 0  9990,2 51804  53.2157 192.6251 0001277 100.3355 259.7782 15.08874920 95573,6917.774,95.435,540.522,538.755,0.0
51804.0,STARLINK-3601,PAYLOAD,2023-11-09 00:56:45,15.0887948,0.0001281,53.2157,192.3277,100.0335,260.0802,0.0017431,0.00027592,0.0,0 STARLINK-3601,1 51804U 22017AN  23313.03941678  .00027592  00000-0  17431-2 0  9993,2 51804  53.2157 192.3277 0001281 100.0335 260.0802 15.08879480 95583,6917.76,95.435,540.511,538.739,0.0
51804.0,STARLINK-3601,PAYLOAD,2023-11-09 20:01:23,15.08862357,0.0001703,53.2158,188.7596,106.267,253.8509,0.0013189,0.00020778,0.0,0 STARLINK-3601,1 51804U 22017AN  23313.83429425  .00020778  00000-0  13189-2 0  9997,2 51804  53.2158 188.7596 0001703 106.2670 253.8509 15.08862357 95800,6917.812,95.436,540.855,538.499,0.0
51804.0,STARLINK-3601,PAYLOAD,2023-11-09 21:36:46,15.08860426,0.0001418,53.2156,188.4627,124.1236,235.989,0.001309,0.00020618,0.0,0 STARLINK-3601,1 51804U 22017AN  23313.90053262  .00020618  00000-0  13090-2 0  9991,2 51804  53.2156 188.4627 0001418 124.1236 235.9890 15.08860426 95719,6917.818,95.436,540.664,538.702,0.0
51804.0,STARLINK-3601,PAYLOAD,2023-11-09 23:12:09,15.08857844,0.0001342,53.2149,188.1662,130.7972,229.3137,0.0011518,0.00018099,0.0,0 STARLINK-3601,1 51804U 22017AN  23313.96677196  .00018099  00000-0  11518-2 0  9998,2 51804  53.2149 188.1662 0001342 130.7972 229.3137 15.08857844 95826,6917.826,95.436,540.619,538.762,0.0
51804.0,STARLINK-3601,PAYLOAD,2023-11-10 19:52:10,15.08850886,0.0001508,53.2151,184.2995,79.1878,280.9284,0.00092983,0.00014546,0.0,0 STARLINK-3601,1 51804U 22017AN  23314.82789489  .00014546  00000-0  92983-3 0  9992,2 51804  53.2151 184.2995 0001508  79.1878 280.9284 15.08850886 95959,6917.847,95.437,540.755,538.669,0.0
51804.0,STARLINK-3601,PAYLOAD,2023-11-11 00:38:19,15.08852161,0.0001553,53.2162,183.4041,79.7804,280.3363,0.00023391,3.438e-05,0.0,0 STARLINK-3601,1 51804U 22017AN  23315.02661126  .00003438  00000-0  23391-3 0  9997,2 51804  53.2162 183.4041 0001553  79.7804 280.3363 15.08852161 95881,6917.843,95.437,540.783,538.634,0.0
51804.0,STARLINK-3601,PAYLOAD,2023-11-11 19:42:57,15.08844736,0.0001631,53.216,179.8295,78.4586,281.6589,0.0001905,2.745e-05,0.0,0 STARLINK-3601,1 51804U 22017AN  23315.82149386  .00002745  00000-0  19050-3 0  9991,2 51804  53.2160 179.8295 0001631  78.4586 281.6589 15.08844736 96108,6917.866,95.437,540.859,538.603,0.0
51804.0,STARLINK-3601,PAYLOAD,2023-11-11 21:18:20,15.08844411,0.0001581,53.2157,179.5401,86.368,273.7493,0.00012082,1.636e-05,0.0,0 STARLINK-3601,1 51804U 22017AN  23315.88773286  .00001636  00000-0  12082-3 0  9995,2 51804  53.2157 179.5401 0001581  86.3680 273.7493 15.08844411 96013,6917.867,95.437,540.826,538.638,0.0
51804.0,STARLINK-3601,PAYLOAD,2023-11-12 08:26:02,15.08841116,0.000156,53.2154,177.4583,84.4772,275.6398,8.4152e-05,1.052e-05,0.0,0 STARLINK-3601,1 51804U 22017AN  23316.35141426  .00001052  00000-0  84152-4 0  9993,2 51804  53.2154 177.4583 0001560  84.4772 275.6398 15.08841116 96087,6917.877,95.437,540.821,538.663,0.0
51804.0,STARLINK-3601,PAYLOAD,2023-11-12 19:33:44,15.08842978,0.000159,53.2155,175.3765,85.1992,274.9181,5.0043e-05,5.09e-06,0.0,0 STARLINK-3601,1 51804U 22017AN  23316.81509491  .00000509  00000-0  50043-4 0  9992,2 51804  53.2155 175.3765 0001590  85.1992 274.9181 15.08842978 96250,6917.871,95.437,540.836,538.636,0.0
51804.0,STARLINK-3601,PAYLOAD,2023-11-12 21:09:07,15.08843761,0.0001489,53.2154,175.0778,95.0665,265.0497,5.5885e-05,6.02e-06,0.0,0 STARLINK-3601,1 51804U 22017AN  23316.88133323  .00000602  00000-0  55885-4 0  9999,2 51804  53.2154 175.0778 0001489  95.0665 265.0497 15.08843761 96166,6917.869,95.437,540.764,538.704,0.0
51804.0,STARLINK-3601,PAYLOAD,2023-11-13 20:59:53,15.08848184,0.0001455,53.2143,170.6172,95.3451,264.7707,0.00017753,2.539e-05,0.0,0 STARLINK-3601,1 51804U 22017AN  23317.87492976  .00002539  00000-0  17753-3 0  9993,2 51804  53.2143 170.6172 0001455  95.3451 264.7707 15.08848184 96313,6917.855,95.437,540.727,538.714,0.0
51804.0,STARLINK-3601,PAYLOAD,2023-11-14 00:10:40,15.08847842,0.0001449,53.2143,170.0226,95.1457,264.97,0.00016352,2.316e-05,0.0,0 STARLINK-3601,1 51804U 22017AN  23318.00740947  .00002316  00000-0  16352-3 0  9990,2 51804  53.2143 170.0226 0001449  95.1457 264.9700 15.08847842 96432,6917.856,95.437,540.724,538.719,0.0
51804.0,STARLINK-3601,PAYLOAD,2023-11-14 20:50:41,15.08831262,0.0001369,53.2129,166.1588,88.3909,271.724,0.00020445,2.967e-05,0.0,0 STARLINK-3601,1 51804U 22017AN  23318.86853906  .00002967  00000-0  20445-3 0  9994,2 51804  53.2129 166.1588 0001369  88.3909 271.7240 15.08831262 96467,6917.907,95.438,540.719,538.825,0.0
51804.0,STARLINK-3601,PAYLOAD,2023-11-15 00:01:27,15.08838189,0.0001356,53.214,165.5639,85.8963,274.2184,1.4858e-05,-5.1e-07,0.0,0 STARLINK-3601,1 51804U 22017AN  23319.00101660 -.00000051  00000-0  14858-4 0  9999,2 51804  53.2140 165.5639 0001356  85.8963 274.2184 15.08838189 96581,6917.886,95.438,540.689,538.813,0.0
51804.0,STARLINK-3601,PAYLOAD,2023-11-15 20:41:28,15.08849937,0.0001466,53.2169,161.6986,89.9509,270.1651,-1.1024e-05,-4.63e-06,0.0,0 STARLINK-3601,1 51804U 22017AN  23319.86212992 -.00000463  00000-0 -11024-4 0  9994,2 51804  53.2169 161.6986 0001466  89.9509 270.1651 15.08849937 96719,6917.85,95.437,540.729,538.701,0.0
51804.0,STARLINK-3601,PAYLOAD,2023-11-16 12:35:19,15.08835864,0.0001494,53.2162,158.7258,88.221,271.8953,9.2266e-05,1.181e-05,0.0,0 STARLINK-3601,1 51804U 22017AN  23320.52453623  .00001181  00000-0  92266-4 0  9990,2 51804  53.2162 158.7258 0001494  88.2210 271.8953 15.08835864 96710,6917.893,95.438,540.792,538.724,0.0
51804.0,STARLINK-3601,PAYLOAD,2023-11-16 22:07:38,15.08835209,0.0001472,53.2166,156.9413,86.574,273.542,7.0102e-05,8.28e-06,0.0,0 STARLINK-3601,1 51804U 22017AN  23320.92197832  .00000828  00000-0  70102-4 0  9993,2 51804  53.2166 156.9413 0001472  86.5740 273.5420 15.08835209 96779,6917.895,95.438,540.778,538.742,0.0
